[{"OBJECT_NAME":"ONEWEB-0264","OBJECT_ID":"2021-060R","EPOCH":"2026-04-07T03:03:06.352704","MEAN_MOTION":13.16594245,"ECCENTRICITY":0.000199,"INCLINATION":87.9049,"RA_OF_ASC_NODE":242.9049,"ARG_OF_PERICENTER":104.3764,"MEAN_ANOMALY":255.7588,"EPHEMERIS_TYPE":0,"CLASSIFICATION_TYPE":"U","NORAD_CAT_ID":48982,"ELEMENT_SET_NO":999,"REV_AT_EPOCH":23024,"BSTAR":-0.00019161000000000002,"MEAN_MOTION_DOT":-6e-07,"MEAN_MOTION_DDOT":0.0},{"OBJECT_NAME":"ONEWEB-0266","OBJECT_ID":"2021-060T","EPOCH":"2026-04-06T22:05:33.671904","MEAN_MOTION":13.1659333,"ECCENTRICITY":0.0001674,"INCLINATION":87.9049,"RA_OF_ASC_NODE":242.9355,"ARG_OF_PERICENTER":98.9938,"MEAN_ANOMALY":261.1382,"EPHEMERIS_TYPE":0,"CLASSIFICATION_TYPE":"U","NORAD_CAT_ID":48984,"ELEMENT_SET_NO":999,"REV_AT_EPOCH":23020,"BSTAR":0.00033531,"MEAN_MOTION_DOT":1.41e-06,"MEAN_MOTION_DDOT":0.0},{"OBJECT_NAME":"ONEWEB-0267","OBJECT_ID":"2021-060U","EPOCH":"2026-04-07T03:49:49.958400","MEAN_MOTION":13.16594208,"ECCENTRICITY":0.0001988,"INCLINATION":87.9048,"RA_OF_ASC_NODE":242.8842,"ARG_OF_PERICENTER":100.5977,"MEAN_ANOMALY":259.5378,"EPHEMERIS_TYPE":0,"CLASSIFICATION_TYPE":"U","NORAD_CAT_ID":48985,"ELEMENT_SET_NO":999,"REV_AT_EPOCH":23024,"BSTAR":-0.00033939,"MEAN_MOTION_DOT":-1.17e-06,"MEAN_MOTION_DDOT":0.0},{"OBJECT_NAME":"ONEWEB-0268","OBJECT_ID":"2021-060V","EPOCH":"2026-04-07T03:04:13.712736","MEAN_MOTION":13.16594291,"ECCENTRICITY":0.0001789,"INCLINATION":87.9047,"RA_OF_ASC_NODE":242.9,"ARG_OF_PERICENTER":102.5706,"MEAN_ANOMALY":257.5625,"EPHEMERIS_TYPE":0,"CLASSIFICATION_TYPE":"U","NORAD_CAT_ID":48986,"ELEMENT_SET_NO":999,"REV_AT_EPOCH":23050,"BSTAR":-0.00051749,"MEAN_MOTION_DOT":-1.85e-06,"MEAN_MOTION_DDOT":0.0},{"OBJECT_NAME":"ONEWEB-0269","OBJECT_ID":"2021-060W","EPOCH":"2026-04-07T02:36:51.898464","MEAN_MOTION":13.16594881,"ECCENTRICITY":0.0001624,"INCLINATION":87.9037,"RA_OF_ASC_NODE":242.9147,"ARG_OF_PERICENTER":106.4375,"MEAN_ANOMALY":253.6934,"EPHEMERIS_TYPE":0,"CLASSIFICATION_TYPE":"U","NORAD_CAT_ID":48987,"ELEMENT_SET_NO":999,"REV_AT_EPOCH":23027,"BSTAR":-0.00021068,"MEAN_MOTION_DOT":-6.8e-07,"MEAN_MOTION_DDOT":0.0},{"OBJECT_NAME":"ONEWEB-0270","OBJECT_ID":"2021-060X","EPOCH":"2026-04-07T03:01:57.016704","MEAN_MOTION":13.16593972,"ECCENTRICITY":0.0002082,"INCLINATION":87.9048,"RA_OF_ASC_NODE":242.9021,"ARG_OF_PERICENTER":92.2688,"MEAN_ANOMALY":267.8681,"EPHEMERIS_TYPE":0,"CLASSIFICATION_TYPE":"U","NORAD_CAT_ID":48988,"ELEMENT_SET_NO":999,"REV_AT_EPOCH":23031,"BSTAR":-0.00058599,"MEAN_MOTION_DOT":-2.11e-06,"MEAN_MOTION_DDOT":0.0},{"OBJECT_NAME":"ONEWEB-0271","OBJECT_ID":"2021-060Y","EPOCH":"2026-04-07T02:43:43.065696","MEAN_MOTION":13.16594014,"ECCENTRICITY":0.0002039,"INCLINATION":87.905,"RA_OF_ASC_NODE":242.8962,"ARG_OF_PERICENTER":97.8646,"MEAN_ANOMALY":262.2716,"EPHEMERIS_TYPE":0,"CLASSIFICATION_TYPE":"U","NORAD_CAT_ID":48989,"ELEMENT_SET_NO":999,"REV_AT_EPOCH":23031,"BSTAR":-2.9809000000000002e-05,"MEAN_MOTION_DOT":1e-08,"MEAN_MOTION_DDOT":0.0},{"OBJECT_NAME":"ONEWEB-0272","OBJECT_ID":"2021-060Z","EPOCH":"2026-04-07T03:15:37.287072","MEAN_MOTION":13.16593466,"ECCENTRICITY":0.0001996,"INCLINATION":87.9047,"RA_OF_ASC_NODE":242.9024,"ARG_OF_PERICENTER":107.1097,"MEAN_ANOMALY":253.0253,"EPHEMERIS_TYPE":0,"CLASSIFICATION_TYPE":"U","NORAD_CAT_ID":48990,"ELEMENT_SET_NO":999,"REV_AT_EPOCH":23026,"BSTAR":-0.0007932200000000001,"MEAN_MOTION_DOT":-2.9e-06,"MEAN_MOTION_DDOT":0.0},{"OBJECT_NAME":"ONEWEB-0273","OBJECT_ID":"2021-060AA","EPOCH":"2026-04-07T03:47:33.061056","MEAN_MOTION":13.16594409,"ECCENTRICITY":0.0001893,"INCLINATION":87.905,"RA_OF_ASC_NODE":242.8965,"ARG_OF_PERICENTER":97.4772,"MEAN_ANOMALY":262.6574,"EPHEMERIS_TYPE":0,"CLASSIFICATION_TYPE":"U","NORAD_CAT_ID":48991,"ELEMENT_SET_NO":999,"REV_AT_EPOCH":23024,"BSTAR":-0.0001628,"MEAN_MOTION_DOT":-4.9e-07,"MEAN_MOTION_DDOT":0.0},{"OBJECT_NAME":"ONEWEB-0274","OBJECT_ID":"2021-060AB","EPOCH":"2026-04-07T02:34:35.532480","MEAN_MOTION":13.16596825,"ECCENTRICITY":0.0001786,"INCLINATION":87.9041,"RA_OF_ASC_NODE":242.9181,"ARG_OF_PERICENTER":108.0749,"MEAN_ANOMALY":252.0577,"EPHEMERIS_TYPE":0,"CLASSIFICATION_TYPE":"U","NORAD_CAT_ID":48992,"ELEMENT_SET_NO":999,"REV_AT_EPOCH":23027,"BSTAR":0.00015001999999999998,"MEAN_MOTION_DOT":7e-07,"MEAN_MOTION_DDOT":0.0},{"OBJECT_NAME":"ONEWEB-0275","OBJECT_ID":"2021-060AC","EPOCH":"2026-04-07T02:18:38.020032","MEAN_MOTION":13.16594212,"ECCENTRICITY":0.000184,"INCLINATION":87.9048,"RA_OF_ASC_NODE":242.9011,"ARG_OF_PERICENTER":101.9188,"MEAN_ANOMALY":258.215,"EPHEMERIS_TYPE":0,"CLASSIFICATION_TYPE":"U","NORAD_CAT_ID":48993,"ELEMENT_SET_NO":999,"REV_AT_EPOCH":23020,"BSTAR":-0.00022936,"MEAN_MOTION_DOT":-7.5e-07,"MEAN_MOTION_DDOT":0.0},{"OBJECT_NAME":"ONEWEB-0276","OBJECT_ID":"2021-060AD","EPOCH":"2026-04-07T03:06:29.460096","MEAN_MOTION":13.16591892,"ECCENTRICITY":0.0001838,"INCLINATION":87.9048,"RA_OF_ASC_NODE":242.8948,"ARG_OF_PERICENTER":105.972,"MEAN_ANOMALY":254.1614,"EPHEMERIS_TYPE":0,"CLASSIFICATION_TYPE":"U","NORAD_CAT_ID":48994,"ELEMENT_SET_NO":999,"REV_AT_EPOCH":23022,"BSTAR":-2.7112000000000004e-05,"MEAN_MOTION_DOT":2e-08,"MEAN_MOTION_DDOT":0.0},{"OBJECT_NAME":"ONEWEB-0277","OBJECT_ID":"2021-060AE","EPOCH":"2026-04-07T03:24:44.990496","MEAN_MOTION":13.16593434,"ECCENTRICITY":0.0001917,"INCLINATION":87.9042,"RA_OF_ASC_NODE":242.9047,"ARG_OF_PERICENTER":98.2119,"MEAN_ANOMALY":261.9229,"EPHEMERIS_TYPE":0,"CLASSIFICATION_TYPE":"U","NORAD_CAT_ID":48995,"ELEMENT_SET_NO":999,"REV_AT_EPOCH":23021,"BSTAR":-0.00013918,"MEAN_MOTION_DOT":-4e-07,"MEAN_MOTION_DDOT":0.0},{"OBJECT_NAME":"ONEWEB-0278","OBJECT_ID":"2021-060AF","EPOCH":"2026-04-07T03:11:03.239232","MEAN_MOTION":13.16593841,"ECCENTRICITY":0.0001547,"INCLINATION":87.9048,"RA_OF_ASC_NODE":242.8916,"ARG_OF_PERICENTER":96.7585,"MEAN_ANOMALY":263.3722,"EPHEMERIS_TYPE":0,"CLASSIFICATION_TYPE":"U","NORAD_CAT_ID":48996,"ELEMENT_SET_NO":999,"REV_AT_EPOCH":23034,"BSTAR":-0.00061311,"MEAN_MOTION_DOT":-2.22e-06,"MEAN_MOTION_DDOT":0.0},{"OBJECT_NAME":"ONEWEB-0279","OBJECT_ID":"2021-060AG","EPOCH":"2026-04-07T03:22:28.700544","MEAN_MOTION":13.16594082,"ECCENTRICITY":0.0002036,"INCLINATION":87.905,"RA_OF_ASC_NODE":242.8892,"ARG_OF_PERICENTER":101.8536,"MEAN_ANOMALY":258.2823,"EPHEMERIS_TYPE":0,"CLASSIFICATION_TYPE":"U","NORAD_CAT_ID":48997,"ELEMENT_SET_NO":999,"REV_AT_EPOCH":23027,"BSTAR":-9.6767e-05,"MEAN_MOTION_DOT":-2.4e-07,"MEAN_MOTION_DDOT":0.0},{"OBJECT_NAME":"ONEWEB-0280","OBJECT_ID":"2021-060AH","EPOCH":"2026-04-07T03:44:06.736992","MEAN_MOTION":13.16596116,"ECCENTRICITY":0.0001794,"INCLINATION":87.9049,"RA_OF_ASC_NODE":242.8907,"ARG_OF_PERICENTER":88.524,"MEAN_ANOMALY":271.6096,"EPHEMERIS_TYPE":0,"CLASSIFICATION_TYPE":"U","NORAD_CAT_ID":48998,"ELEMENT_SET_NO":999,"REV_AT_EPOCH":23021,"BSTAR":0.0001449,"MEAN_MOTION_DOT":6.8e-07,"MEAN_MOTION_DDOT":0.0},{"OBJECT_NAME":"ONEWEB-0281","OBJECT_ID":"2021-060AJ","EPOCH":"2026-04-07T03:52:06.577536","MEAN_MOTION":13.16595865,"ECCENTRICITY":0.0001747,"INCLINATION":87.9048,"RA_OF_ASC_NODE":242.8838,"ARG_OF_PERICENTER":104.5432,"MEAN_ANOMALY":255.5893,"EPHEMERIS_TYPE":0,"CLASSIFICATION_TYPE":"U","NORAD_CAT_ID":48999,"ELEMENT_SET_NO":999,"REV_AT_EPOCH":23028,"BSTAR":0.00036346,"MEAN_MOTION_DOT":1.52e-06,"MEAN_MOTION_DDOT":0.0},{"OBJECT_NAME":"ONEWEB-0282","OBJECT_ID":"2021-060AK","EPOCH":"2026-04-07T02:45:59.100768","MEAN_MOTION":13.16594364,"ECCENTRICITY":0.0001852,"INCLINATION":87.9047,"RA_OF_ASC_NODE":242.9031,"ARG_OF_PERICENTER":96.5665,"MEAN_ANOMALY":263.5677,"EPHEMERIS_TYPE":0,"CLASSIFICATION_TYPE":"U","NORAD_CAT_ID":49000,"ELEMENT_SET_NO":999,"REV_AT_EPOCH":23025,"BSTAR":-0.00035371,"MEAN_MOTION_DOT":-1.22e-06,"MEAN_MOTION_DDOT":0.0},{"OBJECT_NAME":"ONEWEB-0283","OBJECT_ID":"2021-060AL","EPOCH":"2026-04-07T02:30:01.759392","MEAN_MOTION":13.16594706,"ECCENTRICITY":0.0001925,"INCLINATION":87.9048,"RA_OF_ASC_NODE":242.9054,"ARG_OF_PERICENTER":100.6911,"MEAN_ANOMALY":259.4437,"EPHEMERIS_TYPE":0,"CLASSIFICATION_TYPE":"U","NORAD_CAT_ID":49001,"ELEMENT_SET_NO":999,"REV_AT_EPOCH":23026,"BSTAR":-0.00024207000000000002,"MEAN_MOTION_DOT":-8e-07,"MEAN_MOTION_DDOT":0.0},{"OBJECT_NAME":"ONEWEB-0284","OBJECT_ID":"2021-060AM","EPOCH":"2026-04-07T02:20:55.110912","MEAN_MOTION":13.16594849,"ECCENTRICITY":0.0001641,"INCLINATION":87.905,"RA_OF_ASC_NODE":242.8985,"ARG_OF_PERICENTER":89.2257,"MEAN_ANOMALY":270.9062,"EPHEMERIS_TYPE":0,"CLASSIFICATION_TYPE":"U","NORAD_CAT_ID":49002,"ELEMENT_SET_NO":999,"REV_AT_EPOCH":23024,"BSTAR":-2.1342e-05,"MEAN_MOTION_DOT":5e-08,"MEAN_MOTION_DDOT":0.0},{"OBJECT_NAME":"ONEWEB-0285","OBJECT_ID":"2021-075A","EPOCH":"2026-04-07T03:49:57.022464","MEAN_MOTION":13.12442765,"ECCENTRICITY":0.000187,"INCLINATION":87.9018,"RA_OF_ASC_NODE":4.7666,"ARG_OF_PERICENTER":77.8726,"MEAN_ANOMALY":282.2613,"EPHEMERIS_TYPE":0,"CLASSIFICATION_TYPE":"U","NORAD_CAT_ID":49075,"ELEMENT_SET_NO":999,"REV_AT_EPOCH":22589,"BSTAR":-0.0013064,"MEAN_MOTION_DOT":-4.57e-06,"MEAN_MOTION_DDOT":0.0},{"OBJECT_NAME":"ONEWEB-0286","OBJECT_ID":"2021-075B","EPOCH":"2026-04-07T03:24:08.590176","MEAN_MOTION":13.12440537,"ECCENTRICITY":0.0001594,"INCLINATION":87.9004,"RA_OF_ASC_NODE":4.7941,"ARG_OF_PERICENTER":81.4722,"MEAN_ANOMALY":278.6588,"EPHEMERIS_TYPE":0,"CLASSIFICATION_TYPE":"U","NORAD_CAT_ID":49076,"ELEMENT_SET_NO":999,"REV_AT_EPOCH":22524,"BSTAR":-0.00052326,"MEAN_MOTION_DOT":-1.76e-06,"MEAN_MOTION_DDOT":0.0},{"OBJECT_NAME":"ONEWEB-0287","OBJECT_ID":"2021-075C","EPOCH":"2026-04-07T03:59:31.267968","MEAN_MOTION":13.17650865,"ECCENTRICITY":0.0001372,"INCLINATION":87.9185,"RA_OF_ASC_NODE":19.9717,"ARG_OF_PERICENTER":77.32,"MEAN_ANOMALY":282.8085,"EPHEMERIS_TYPE":0,"CLASSIFICATION_TYPE":"U","NORAD_CAT_ID":49077,"ELEMENT_SET_NO":999,"REV_AT_EPOCH":22427,"BSTAR":0.00022756000000000002,"MEAN_MOTION_DOT":1.01e-06,"MEAN_MOTION_DDOT":0.0}]